      2.10          N: GNSS NAV DATA                        RINEX VERSION / TYPE
fic2rin                                 02/12/2022 00:17:38 PGM / RUN BY / DATE
                                                            END OF HEADER
 5 22  2 12  0  0  0.0-7.110647857189e-05-1.364242052659e-12 0.000000000000e+00
    8.100000000000e+01-9.943750000000e+01 4.316608375494e-09-2.749532625710e+00
   -5.139037966728e-06 5.880019627512e-03 7.770955562592e-06 5.153667137146e+03
    5.184000000000e+05 5.587935447693e-08-7.930487143936e-01-1.676380634308e-08
    9.595652843057e-01 2.300312500000e+02 1.009255473690e+00-7.803539334450e-09
    1.785788670980e-12 1.000000000000e+00 2.196000000000e+03 0.000000000000e+00
    2.400000000000e+00 0.000000000000e+00-1.117587089539e-08 8.100000000000e+01
    5.112000000000e+05 4.000000000000e+00
 3 22  2 12  0  0  0.0-1.172786578536e-04-1.693933882052e-11 0.000000000000e+00
    8.500000000000e+01-9.875000000000e+01 4.079098482253e-09-2.752158377872e-01
   -5.155801773071e-06 3.890374675393e-03 8.668750524521e-06 5.153687589645e+03
    5.184000000000e+05-1.303851604462e-08-7.526945141649e-01 7.823109626770e-08
    9.725935338646e-01 2.169687500000e+02 9.601403998273e-01-7.849612682162e-09
    6.428839215530e-12 1.000000000000e+00 2.196000000000e+03 0.000000000000e+00
    3.400000000000e+00 0.000000000000e+00 1.862645149231e-09 8.500000000000e+01
    5.112000000000e+05 4.000000000000e+00
 4 22  2 12  0  0  0.0-1.900908537209e-04 2.160049916711e-12 0.000000000000e+00
    4.900000000000e+01-3.093750000000e+00 4.508759236491e-09 2.664288238551e+00
   -1.434236764908e-07 1.693473896012e-03 8.378177881241e-06 5.153650651932e+03
    5.184000000000e+05-5.587935447693e-09 3.282415374461e-01 5.587935447693e-09
    9.614470285165e-01 2.184687500000e+02-3.063590770075e+00-7.848184051225e-09
    3.818016178556e-10 1.000000000000e+00 2.196000000000e+03 0.000000000000e+00
    2.400000000000e+00 0.000000000000e+00-4.190951585770e-09 5.610000000000e+02
    5.112000000000e+05 4.000000000000e+00
13 22  2 12  0  0  0.0 2.602161839604e-04 6.139089236967e-12 0.000000000000e+00
    2.000000000000e+00 2.531250000000e+00 4.280535444340e-09 2.574499925433e+00
    1.452863216400e-07 5.799840088002e-03 8.122995495796e-06 5.153670494080e+03
    5.184000000000e+05 6.146728992462e-08 4.280662658782e-01-8.381903171539e-08
    9.688509739491e-01 2.272812500000e+02 9.591837084572e-01-7.689606017242e-09
    4.375182243902e-10 1.000000000000e+00 2.196000000000e+03 0.000000000000e+00
    2.400000000000e+00 0.000000000000e+00-1.117587089539e-08 2.000000000000e+00
    5.112000000000e+05 4.000000000000e+00
10 22  2 12  0  0  0.0-3.179367631674e-04-1.034550223267e-11 0.000000000000e+00
    1.200000000000e+01-8.459375000000e+01 4.038739658289e-09-1.149062894305e+00
   -4.524365067482e-06 7.495349738747e-03 8.402392268181e-06 5.153680795670e+03
    5.184000000000e+05 2.421438694000e-07-7.554825302741e-01-3.911554813385e-08
    9.724209300121e-01 2.240312500000e+02-2.516931356042e+00-7.746036939245e-09
   -7.036007363663e-11 1.000000000000e+00 2.196000000000e+03 0.000000000000e+00
    2.400000000000e+00 0.000000000000e+00 2.328306436539e-09 1.200000000000e+01
    5.112000000000e+05 4.000000000000e+00
 9 22  2 12  0  0  0.0-3.545531071723e-04 1.591615728103e-12 0.000000000000e+00
    1.800000000000e+01-6.593750000000e+00 4.592691304027e-09-2.774863419445e+00
   -2.961605787277e-07 2.259358181618e-03 8.640810847282e-06 5.153621051788e+03
    5.184000000000e+05 3.539025783539e-08 2.753319495951e-01-1.862645149231e-08
    9.544609583186e-01 2.105937500000e+02 1.869726975119e+00-7.859255940985e-09
    3.696582548929e-10 1.000000000000e+00 2.196000000000e+03 0.000000000000e+00
    2.400000000000e+00 0.000000000000e+00 1.396983861923e-09 1.800000000000e+01
    5.112000000000e+05 4.000000000000e+00
12 22  2 12  0  0  0.0-1.696371473372e-04-5.684341886081e-12 0.000000000000e+00
    6.700000000000e+01 4.743750000000e+01 4.331609000330e-09-4.425732023103e-01
    2.520158886909e-06 8.676105760969e-03 9.464100003242e-06 5.153604000092e+03
    5.184000000000e+05-4.097819328308e-08 2.460129798989e+00 1.173466444016e-07
    9.703650195523e-01 2.089062500000e+02 1.246105951303e+00-7.914258232051e-09
   -2.175090601254e-10 1.000000000000e+00 2.196000000000e+03 0.000000000000e+00
    2.400000000000e+00 0.000000000000e+00-1.257285475731e-08 6.700000000000e+01
    5.112000000000e+05 4.000000000000e+00
 6 22  2 12  0  0  0.0 1.986771821976e-04 1.182343112305e-11 0.000000000000e+00
    4.500000000000e+01-4.818750000000e+01 4.069455223430e-09 1.213426153487e+00
   -2.646818757057e-06 2.692550537176e-03 2.108514308929e-06 5.153668247223e+03
    5.184000000000e+05 3.352761268616e-08-1.796465259246e+00-9.313225746155e-09
    9.860251055492e-01 3.500000000000e+02-9.629864177125e-01-8.076407843376e-09
   -1.789360248322e-10 1.000000000000e+00 2.196000000000e+03 0.000000000000e+00
    2.400000000000e+00 0.000000000000e+00 3.725290298462e-09 4.500000000000e+01
    5.112000000000e+05 4.000000000000e+00
 8 22  2 12  0  0  0.0-5.580252036452e-05-1.477928890381e-12 0.000000000000e+00
    9.500000000000e+01 9.359375000000e+01 4.415541067866e-09-3.133956797606e+00
    4.883855581284e-06 7.270519039594e-03 5.247071385384e-06 5.153723833084e+03
    5.184000000000e+05-1.229345798492e-07-2.867867912610e+00-6.705522537231e-08
    9.650700138969e-01 2.829375000000e+02 1.010793694015e-01-7.989261356232e-09
    1.339341503235e-10 1.000000000000e+00 2.196000000000e+03 0.000000000000e+00
    3.400000000000e+00 0.000000000000e+00 5.122274160385e-09 9.500000000000e+01
    5.112000000000e+05 4.000000000000e+00
31 22  2 12  0  0  0.0-1.642908900976e-04-1.705302565824e-12 0.000000000000e+00
    1.700000000000e+01 6.687500000000e+00 4.868417074827e-09-2.413610856123e-01
    5.699694156647e-07 1.045475446153e-02 6.284564733505e-06 5.153681713104e+03
    5.184000000000e+05 1.080334186554e-07 1.365268217016e+00 9.126961231232e-08
    9.548531608040e-01 2.531250000000e+02 3.752024893068e-01-8.251415133132e-09
   -8.357490980188e-11 1.000000000000e+00 2.196000000000e+03 0.000000000000e+00
    2.400000000000e+00 0.000000000000e+00-1.350417733192e-08 1.700000000000e+01
    5.112000000000e+05 4.000000000000e+00
19 22  2 12  0  0  0.0 1.177205704153e-04 5.002220859751e-12 0.000000000000e+00
    5.200000000000e+01 8.600000000000e+01 4.224104522337e-09-8.162265272025e-01
    4.556030035019e-06 8.966233348474e-03 4.839152097702e-06 5.153685588837e+03
    5.184000000000e+05-1.192092895508e-07-2.741193858070e+00-6.705522537231e-08
    9.788977993883e-01 2.977187500000e+02 2.006945588105e+00-8.167125907862e-09
    1.942938074027e-10 1.000000000000e+00 2.196000000000e+03 0.000000000000e+00
    2.400000000000e+00 0.000000000000e+00-1.583248376846e-08 5.200000000000e+01
    5.112000000000e+05 4.000000000000e+00
27 22  2 12  0  0  0.0 1.150094904006e-04 1.671196514508e-11 0.000000000000e+00
    3.500000000000e+01 8.650000000000e+01 4.188031591183e-09 3.102548641330e+00
    4.380941390991e-06 1.019871095195e-02 5.448237061501e-06 5.153653345108e+03
    5.184000000000e+05-4.656612873077e-08-2.848479123458e+00-1.303851604462e-07
    9.737660773343e-01 2.819687500000e+02 6.373885736554e-01-7.805325123121e-09
    1.125046862718e-10 1.000000000000e+00 2.196000000000e+03 0.000000000000e+00
    2.400000000000e+00 0.000000000000e+00 1.396983861923e-09 3.500000000000e+01
    5.112000000000e+05 4.000000000000e+00
24 22  2 12  0  0  0.0 2.749571576715e-04-1.705302565824e-12 0.000000000000e+00
    4.200000000000e+01 3.937500000000e+00 5.445941131022e-09 1.177403884832e+00
    1.545995473862e-07 1.233271800447e-02 6.070360541344e-06 5.153689189911e+03
    5.184000000000e+05-1.322478055954e-07 1.264461583820e+00 1.005828380585e-07
    9.341476020143e-01 2.493750000000e+02 8.072202227281e-01-8.550356156654e-09
   -1.814361289716e-10 1.000000000000e+00 2.196000000000e+03 0.000000000000e+00
    2.400000000000e+00 0.000000000000e+00 2.328306436539e-09 4.200000000000e+01
    5.112000000000e+05 4.000000000000e+00
17 22  2 12  0  0  0.0 5.738837644458e-04 5.002220859751e-12 0.000000000000e+00
    3.800000000000e+01 9.803125000000e+01 4.105885312318e-09 3.056914557630e+00
    5.189329385757e-06 1.362900086679e-02 4.637986421585e-06 5.153760953903e+03
    5.184000000000e+05 2.644956111908e-07-2.786062425997e+00-1.676380634308e-08
    9.801632995986e-01 2.972812500000e+02-1.499488446273e+00-7.790681656019e-09
    1.107188976008e-10 1.000000000000e+00 2.196000000000e+03 0.000000000000e+00
    2.400000000000e+00 0.000000000000e+00-1.117587089539e-08 3.800000000000e+01
    5.112000000000e+05 4.000000000000e+00
14 22  2 12  0  0  0.0-8.275127038360e-05-4.547473508865e-12 0.000000000000e+00
    8.800000000000e+01 5.821875000000e+01 4.568761735836e-09-3.773666147428e-01
    2.993270754814e-06 1.427403069101e-03 9.566545486450e-06 5.153651025772e+03
    5.184000000000e+05-3.725290298462e-09 2.428895380328e+00 0.000000000000e+00
    9.537524904995e-01 1.906250000000e+02 3.018447580240e+00-7.935330538369e-09
   -2.817974522807e-10 1.000000000000e+00 2.196000000000e+03 0.000000000000e+00
    2.400000000000e+00 0.000000000000e+00-7.450580596924e-09 8.800000000000e+01
    5.112000000000e+05 4.000000000000e+00
29 22  2 12  0  0  0.0-4.790448583663e-04-4.774847184308e-12 0.000000000000e+00
    8.500000000000e+01 8.018750000000e+01 4.126600460902e-09-3.059876778024e+00
    4.218891263008e-06 1.823804457672e-03 5.008652806282e-06 5.153755962372e+03
    5.184000000000e+05-1.676380634308e-08-2.773062453182e+00 7.823109626770e-08
    9.821679581864e-01 2.959062500000e+02 2.262394182759e+00-7.911043812443e-09
    1.596495071856e-10 1.000000000000e+00 2.196000000000e+03 0.000000000000e+00
    2.400000000000e+00 0.000000000000e+00-1.024454832077e-08 8.500000000000e+01
    5.112000000000e+05 4.000000000000e+00
